ONEWEB-0319             
1 49105U 21075AG  25262.15721472  .00000029  00000+0  42258-4 0  9995
2 49105  87.9049  59.7858 0002150  89.3916 270.7462 13.17649486197918
ONEWEB-0323             
1 49106U 21075AH  25261.94134767  .00000185  00000+0  47843-3 0  9994
2 49106  87.8911  44.5318 0002409  92.2363 267.9042 13.12442119198973
ONEWEB-0329             
1 49107U 21075AJ  25262.16566488  .00000016  00000+0  73029-5 0  9999
2 49107  87.9046  59.7877 0001922  95.1136 265.0215 13.17649314197893
ONEWEB-0330             
1 49108U 21075AK  25262.16649634  .00000065  00000+0  13485-3 0  9997
2 49108  87.9048  59.7915 0001873 100.2329 259.9014 13.17648668197931
ONEWEB-0292             
1 49186U 21083A   25262.27802581 -.00000286  00000+0 -81829-3 0  9990
2 49186  87.9037  14.0864 0001911  96.9198 263.2148 13.13469941195362
ONEWEB-0303             
1 49187U 21083B   25261.89376921 -.00000268  00000+0 -71286-3 0  9998
2 49187  87.9199  29.3252 0001935  94.9529 265.1824 13.18685554194225
ONEWEB-0306             
1 49188U 21083C   25261.88387619  .00000035  00000+0  55396-4 0  9999
2 49188  87.9202  29.3130 0001589 102.8986 257.2324 13.18684324194262
ONEWEB-0307             
1 49189U 21083D   25262.27209691 -.00000177  00000+0 -51849-3 0  9994
2 49189  87.9025  14.0847 0001744 110.8976 249.2340 13.13470388195362
ONEWEB-0320             
1 49190U 21083E   25261.89047830 -.00000039  00000+0 -13216-3 0  9991
2 49190  87.9197  29.3397 0001800  97.3373 262.7964 13.18685627194221
ONEWEB-0321             
1 49191U 21083F   25261.68859276  .00000069  00000+0  13756-3 0  9994
2 49191  87.9258 328.5652 0001768 114.3638 245.7680 13.20771180200996
ONEWEB-0322             
1 49192U 21083G   25262.26785865 -.00000235  00000+0 -67923-3 0  9994
2 49192  87.9038  14.0825 0001468 112.1170 248.0115 13.13468460195354
ONEWEB-0324             
1 49193U 21083H   25261.87728432 -.00000038  00000+0 -12823-3 0  9998
2 49193  87.9200  29.3221 0001849 102.2700 257.8640 13.18685460194241
ONEWEB-0325             
1 49194U 21083J   25261.88057701 -.00000008  00000+0 -52742-4 0  9996
2 49194  87.9198  29.3389 0001657  98.1089 262.0231 13.18683779194259
ONEWEB-0326             
1 49195U 21083K   25261.89556629 -.00000020  00000+0 -84658-4 0  9996
2 49195  87.9198  29.3237 0001959  89.5052 270.6305 13.18685627194241
ONEWEB-0327             
1 49196U 21083L   25262.27466542  .00000039  00000+0  65917-4 0  9999
2 49196  87.9191  29.2744 0001908  85.8671 274.2679 13.18684282194315
ONEWEB-0328             
1 49197U 21083M   25262.25769835 -.00000298  00000+0 -85095-3 0  9996
2 49197  87.9030  14.0258 0001838 106.4421 253.6911 13.13471676195334
ONEWEB-0331             
1 49198U 21083N   25261.88882559 -.00000196  00000+0 -52975-3 0  9992
2 49198  87.9197  29.3175 0002117  95.5924 264.5449 13.18685482194257
