[{"OBJECT_NAME":"ONEWEB-0319","OBJECT_ID":"2021-075AG","EPOCH":"2025-09-19T03:46:23.351808","MEAN_MOTION":13.17649486,"ECCENTRICITY":0.00021502,"INCLINATION":87.9049,"RA_OF_ASC_NODE":59.7858,"ARG_OF_PERICENTER":89.3916,"MEAN_ANOMALY":270.7462,"EPHEMERIS_TYPE":0,"CLASSIFICATION_TYPE":"U","NORAD_CAT_ID":49105,"ELEMENT_SET_NO":999,"REV_AT_EPOCH":19791,"BSTAR":4.2257869e-5,"MEAN_MOTION_DOT":2.9e-7,"MEAN_MOTION_DDOT":0},{"OBJECT_NAME":"ONEWEB-0323","OBJECT_ID":"2021-075AH","EPOCH":"2025-09-18T22:35:32.438688","MEAN_MOTION":13.12442119,"ECCENTRICITY":0.00024092,"INCLINATION":87.8911,"RA_OF_ASC_NODE":44.5318,"ARG_OF_PERICENTER":92.2363,"MEAN_ANOMALY":267.9042,"EPHEMERIS_TYPE":0,"CLASSIFICATION_TYPE":"U","NORAD_CAT_ID":49106,"ELEMENT_SET_NO":999,"REV_AT_EPOCH":19897,"BSTAR":0.00047842799,"MEAN_MOTION_DOT":1.85e-6,"MEAN_MOTION_DDOT":0},{"OBJECT_NAME":"ONEWEB-0329","OBJECT_ID":"2021-075AJ","EPOCH":"2025-09-19T03:58:33.445632","MEAN_MOTION":13.17649314,"ECCENTRICITY":0.00019223,"INCLINATION":87.9046,"RA_OF_ASC_NODE":59.7877,"ARG_OF_PERICENTER":95.1136,"MEAN_ANOMALY":265.0215,"EPHEMERIS_TYPE":0,"CLASSIFICATION_TYPE":"U","NORAD_CAT_ID":49107,"ELEMENT_SET_NO":999,"REV_AT_EPOCH":19789,"BSTAR":7.302863e-6,"MEAN_MOTION_DOT":1.6e-7,"MEAN_MOTION_DDOT":0},{"OBJECT_NAME":"ONEWEB-0330","OBJECT_ID":"2021-075AK","EPOCH":"2025-09-19T03:59:45.283776","MEAN_MOTION":13.17648668,"ECCENTRICITY":0.0001873,"INCLINATION":87.9048,"RA_OF_ASC_NODE":59.7915,"ARG_OF_PERICENTER":100.2329,"MEAN_ANOMALY":259.9014,"EPHEMERIS_TYPE":0,"CLASSIFICATION_TYPE":"U","NORAD_CAT_ID":49108,"ELEMENT_SET_NO":999,"REV_AT_EPOCH":19793,"BSTAR":0.00013484557,"MEAN_MOTION_DOT":6.5e-7,"MEAN_MOTION_DDOT":0},{"OBJECT_NAME":"ONEWEB-0292","OBJECT_ID":"2021-083A","EPOCH":"2025-09-19T06:40:21.429984","MEAN_MOTION":13.13469941,"ECCENTRICITY":0.00019119,"INCLINATION":87.9037,"RA_OF_ASC_NODE":14.0864,"ARG_OF_PERICENTER":96.9198,"MEAN_ANOMALY":263.2148,"EPHEMERIS_TYPE":0,"CLASSIFICATION_TYPE":"U","NORAD_CAT_ID":49186,"ELEMENT_SET_NO":999,"REV_AT_EPOCH":19536,"BSTAR":-0.00081828997,"MEAN_MOTION_DOT":-2.86e-6,"MEAN_MOTION_DDOT":0},{"OBJECT_NAME":"ONEWEB-0303","OBJECT_ID":"2021-083B","EPOCH":"2025-09-18T21:27:01.659744","MEAN_MOTION":13.18685554,"ECCENTRICITY":0.00019353,"INCLINATION":87.9199,"RA_OF_ASC_NODE":29.3252,"ARG_OF_PERICENTER":94.9529,"MEAN_ANOMALY":265.1824,"EPHEMERIS_TYPE":0,"CLASSIFICATION_TYPE":"U","NORAD_CAT_ID":49187,"ELEMENT_SET_NO":999,"REV_AT_EPOCH":19422,"BSTAR":-0.00071285558,"MEAN_MOTION_DOT":-2.68e-6,"MEAN_MOTION_DDOT":0},{"OBJECT_NAME":"ONEWEB-0306","OBJECT_ID":"2021-083C","EPOCH":"2025-09-18T21:12:46.902816","MEAN_MOTION":13.18684324,"ECCENTRICITY":0.00015899,"INCLINATION":87.9202,"RA_OF_ASC_NODE":29.313,"ARG_OF_PERICENTER":102.8986,"MEAN_ANOMALY":257.2324,"EPHEMERIS_TYPE":0,"CLASSIFICATION_TYPE":"U","NORAD_CAT_ID":49188,"ELEMENT_SET_NO":999,"REV_AT_EPOCH":19426,"BSTAR":5.5396134e-5,"MEAN_MOTION_DOT":3.5e-7,"MEAN_MOTION_DDOT":0},{"OBJECT_NAME":"ONEWEB-0307","OBJECT_ID":"2021-083D","EPOCH":"2025-09-19T06:31:49.173024","MEAN_MOTION":13.13470388,"ECCENTRICITY":0.0001744,"INCLINATION":87.9025,"RA_OF_ASC_NODE":14.0847,"ARG_OF_PERICENTER":110.8976,"MEAN_ANOMALY":249.234,"EPHEMERIS_TYPE":0,"CLASSIFICATION_TYPE":"U","NORAD_CAT_ID":49189,"ELEMENT_SET_NO":999,"REV_AT_EPOCH":19536,"BSTAR":-0.00051848993,"MEAN_MOTION_DOT":-1.77e-6,"MEAN_MOTION_DDOT":0},{"OBJECT_NAME":"ONEWEB-0320","OBJECT_ID":"2021-083E","EPOCH":"2025-09-18T21:22:17.325120","MEAN_MOTION":13.18685627,"ECCENTRICITY":0.00018,"INCLINATION":87.9197,"RA_OF_ASC_NODE":29.3397,"ARG_OF_PERICENTER":97.3373,"MEAN_ANOMALY":262.7964,"EPHEMERIS_TYPE":0,"CLASSIFICATION_TYPE":"U","NORAD_CAT_ID":49190,"ELEMENT_SET_NO":999,"REV_AT_EPOCH":19422,"BSTAR":-0.000132159,"MEAN_MOTION_DOT":-3.9e-7,"MEAN_MOTION_DDOT":0},{"OBJECT_NAME":"ONEWEB-0321","OBJECT_ID":"2021-083F","EPOCH":"2025-09-18T16:31:34.414464","MEAN_MOTION":13.2077118,"ECCENTRICITY":0.00017681,"INCLINATION":87.9258,"RA_OF_ASC_NODE":328.5652,"ARG_OF_PERICENTER":114.3638,"MEAN_ANOMALY":245.768,"EPHEMERIS_TYPE":0,"CLASSIFICATION_TYPE":"U","NORAD_CAT_ID":49191,"ELEMENT_SET_NO":999,"REV_AT_EPOCH":20099,"BSTAR":0.00013756452,"MEAN_MOTION_DOT":6.9e-7,"MEAN_MOTION_DDOT":0},{"OBJECT_NAME":"ONEWEB-0322","OBJECT_ID":"2021-083G","EPOCH":"2025-09-19T06:25:42.987360","MEAN_MOTION":13.1346846,"ECCENTRICITY":0.0001468,"INCLINATION":87.9038,"RA_OF_ASC_NODE":14.0825,"ARG_OF_PERICENTER":112.117,"MEAN_ANOMALY":248.0115,"EPHEMERIS_TYPE":0,"CLASSIFICATION_TYPE":"U","NORAD_CAT_ID":49192,"ELEMENT_SET_NO":999,"REV_AT_EPOCH":19535,"BSTAR":-0.00067922563,"MEAN_MOTION_DOT":-2.35e-6,"MEAN_MOTION_DDOT":0},{"OBJECT_NAME":"ONEWEB-0324","OBJECT_ID":"2021-083H","EPOCH":"2025-09-18T21:03:17.365248","MEAN_MOTION":13.1868546,"ECCENTRICITY":0.00018499,"INCLINATION":87.92,"RA_OF_ASC_NODE":29.3221,"ARG_OF_PERICENTER":102.27,"MEAN_ANOMALY":257.864,"EPHEMERIS_TYPE":0,"CLASSIFICATION_TYPE":"U","NORAD_CAT_ID":49193,"ELEMENT_SET_NO":999,"REV_AT_EPOCH":19424,"BSTAR":-0.00012822646,"MEAN_MOTION_DOT":-3.8e-7,"MEAN_MOTION_DDOT":0},{"OBJECT_NAME":"ONEWEB-0325","OBJECT_ID":"2021-083J","EPOCH":"2025-09-18T21:08:01.853664","MEAN_MOTION":13.18683779,"ECCENTRICITY":0.00016574,"INCLINATION":87.9198,"RA_OF_ASC_NODE":29.3389,"ARG_OF_PERICENTER":98.1089,"MEAN_ANOMALY":262.0231,"EPHEMERIS_TYPE":0,"CLASSIFICATION_TYPE":"U","NORAD_CAT_ID":49194,"ELEMENT_SET_NO":999,"REV_AT_EPOCH":19425,"BSTAR":-5.2742004e-5,"MEAN_MOTION_DOT":-8.0e-8,"MEAN_MOTION_DDOT":0},{"OBJECT_NAME":"ONEWEB-0326","OBJECT_ID":"2021-083K","EPOCH":"2025-09-18T21:29:36.927456","MEAN_MOTION":13.18685627,"ECCENTRICITY":0.00019593,"INCLINATION":87.9198,"RA_OF_ASC_NODE":29.3237,"ARG_OF_PERICENTER":89.5052,"MEAN_ANOMALY":270.6305,"EPHEMERIS_TYPE":0,"CLASSIFICATION_TYPE":"U","NORAD_CAT_ID":49195,"ELEMENT_SET_NO":999,"REV_AT_EPOCH":19424,"BSTAR":-8.4658471e-5,"MEAN_MOTION_DOT":-2.0e-7,"MEAN_MOTION_DDOT":0},{"OBJECT_NAME":"ONEWEB-0327","OBJECT_ID":"2021-083L","EPOCH":"2025-09-19T06:35:31.092288","MEAN_MOTION":13.18684282,"ECCENTRICITY":0.0001908,"INCLINATION":87.9191,"RA_OF_ASC_NODE":29.2744,"ARG_OF_PERICENTER":85.8671,"MEAN_ANOMALY":274.2679,"EPHEMERIS_TYPE":0,"CLASSIFICATION_TYPE":"U","NORAD_CAT_ID":49196,"ELEMENT_SET_NO":999,"REV_AT_EPOCH":19431,"BSTAR":6.5917431e-5,"MEAN_MOTION_DOT":3.9e-7,"MEAN_MOTION_DDOT":0},{"OBJECT_NAME":"ONEWEB-0328","OBJECT_ID":"2021-083M","EPOCH":"2025-09-19T06:11:05.137440","MEAN_MOTION":13.13471676,"ECCENTRICITY":0.00018382,"INCLINATION":87.903,"RA_OF_ASC_NODE":14.0258,"ARG_OF_PERICENTER":106.4421,"MEAN_ANOMALY":253.6911,"EPHEMERIS_TYPE":0,"CLASSIFICATION_TYPE":"U","NORAD_CAT_ID":49197,"ELEMENT_SET_NO":999,"REV_AT_EPOCH":19533,"BSTAR":-0.0008509543,"MEAN_MOTION_DOT":-2.98e-6,"MEAN_MOTION_DDOT":0},{"OBJECT_NAME":"ONEWEB-0331","OBJECT_ID":"2021-083N","EPOCH":"2025-09-18T21:19:54.530976","MEAN_MOTION":13.18685482,"ECCENTRICITY":0.00021171,"INCLINATION":87.9197,"RA_OF_ASC_NODE":29.3175,"ARG_OF_PERICENTER":95.5924,"MEAN_ANOMALY":264.5449,"EPHEMERIS_TYPE":0,"CLASSIFICATION_TYPE":"U","NORAD_CAT_ID":49198,"ELEMENT_SET_NO":999,"REV_AT_EPOCH":19425,"BSTAR":-0.00052975096,"MEAN_MOTION_DOT":-1.96e-6,"MEAN_MOTION_DDOT":0}]
